{"type": "FeatureCollection", "features": [{"type": "Feature", "properties": {"norad_id": 25590, "name": "COSMOS 2361", "group": "musson", "lat": 49.4426494098932, "lon": -4.409120132531885, "alt_km": 998.2933959794955, "timestamp": "2025-12-08T10:52:03.217316+00:00", "meta": {"OBJECT_NAME": "COSMOS 2361", "OBJECT_ID": "1998-076A", "EPOCH": "2025-12-07T19:44:07.754208", "MEAN_MOTION": 13.73216709, "ECCENTRICITY": 0.00300756, "INCLINATION": 82.9338, "RA_OF_ASC_NODE": 347.7238, "ARG_OF_PERICENTER": 279.8883, "MEAN_ANOMALY": 254.6926, "EPHEMERIS_TYPE": 0, "CLASSIFICATION_TYPE": "U", "NORAD_CAT_ID": 25590, "ELEMENT_SET_NO": 999, "REV_AT_EPOCH": 35043, "BSTAR": 8.6430495e-05, "MEAN_MOTION_DOT": 9.5e-07, "MEAN_MOTION_DDOT": 0}, "tle": {"line1": "1 25590U 98076A   25341.82231197  .00000095  00000+0  86430-4 0  9997", "line2": "2 25590  82.9338 347.7238 0030075 279.8883 254.6926 13.73216709350438"}}, "geometry": {"type": "Point", "coordinates": [-4.409120132531885, 49.4426494098932]}}, {"type": "Feature", "properties": {"norad_id": 26818, "name": "COSMOS 2378", "group": "musson", "lat": 70.85801472449096, "lon": 161.94712496535766, "alt_km": 985.655460754977, "timestamp": "2025-12-08T10:52:03.217338+00:00", "meta": {"OBJECT_NAME": "COSMOS 2378", "OBJECT_ID": "2001-023A", "EPOCH": "2025-12-07T19:27:21.426624", "MEAN_MOTION": 13.74141369, "ECCENTRICITY": 0.00321313, "INCLINATION": 82.9274, "RA_OF_ASC_NODE": 3.38, "ARG_OF_PERICENTER": 218.8795, "MEAN_ANOMALY": 314.3967, "EPHEMERIS_TYPE": 0, "CLASSIFICATION_TYPE": "U", "NORAD_CAT_ID": 26818, "ELEMENT_SET_NO": 999, "REV_AT_EPOCH": 22855, "BSTAR": 5.9722739e-05, "MEAN_MOTION_DOT": 7.1e-07, "MEAN_MOTION_DDOT": 0}, "tle": {"line1": "1 26818U 01023A   25341.81066466  .00000071  00000+0  59723-4 0  9990", "line2": "2 26818  82.9274   3.3800 0032131 218.8795 314.3967 13.74141369228557"}}, "geometry": {"type": "Point", "coordinates": [161.94712496535766, 70.85801472449096]}}, {"type": "Feature", "properties": {"norad_id": 27436, "name": "COSMOS 2389", "group": "musson", "lat": -60.22038810788714, "lon": -62.330672888819315, "alt_km": 1012.2657737392383, "timestamp": "2025-12-08T10:52:03.217352+00:00", "meta": {"OBJECT_NAME": "COSMOS 2389", "OBJECT_ID": "2002-026A", "EPOCH": "2025-12-07T23:15:21.608640", "MEAN_MOTION": 13.75153874, "ECCENTRICITY": 0.0047718, "INCLINATION": 82.9498, "RA_OF_ASC_NODE": 310.5167, "ARG_OF_PERICENTER": 73.7069, "MEAN_ANOMALY": 351.9582, "EPHEMERIS_TYPE": 0, "CLASSIFICATION_TYPE": "U", "NORAD_CAT_ID": 27436, "ELEMENT_SET_NO": 999, "REV_AT_EPOCH": 18083, "BSTAR": 7.9498997e-05, "MEAN_MOTION_DOT": 9.2e-07, "MEAN_MOTION_DDOT": 0}, "tle": {"line1": "1 27436U 02026A   25341.96900010  .00000092  00000+0  79499-4 0  9994", "line2": "2 27436  82.9498 310.5167 0047718  73.7069 351.9582 13.75153874180833"}}, "geometry": {"type": "Point", "coordinates": [-62.330672888819315, -60.22038810788714]}}, {"type": "Feature", "properties": {"norad_id": 27818, "name": "COSMOS 2398", "group": "musson", "lat": -64.26487110907003, "lon": -99.02231381048931, "alt_km": 1021.8682718090422, "timestamp": "2025-12-08T10:52:03.217363+00:00", "meta": {"OBJECT_NAME": "COSMOS 2398", "OBJECT_ID": "2003-023A", "EPOCH": "2025-12-07T21:28:54.988896", "MEAN_MOTION": 13.7238491, "ECCENTRICITY": 0.00324074, "INCLINATION": 82.9481, "RA_OF_ASC_NODE": 276.2684, "ARG_OF_PERICENTER": 124.7774, "MEAN_ANOMALY": 296.0498, "EPHEMERIS_TYPE": 0, "CLASSIFICATION_TYPE": "U", "NORAD_CAT_ID": 27818, "ELEMENT_SET_NO": 999, "REV_AT_EPOCH": 12750, "BSTAR": 8.1778361e-05, "MEAN_MOTION_DOT": 9e-07, "MEAN_MOTION_DDOT": 0}, "tle": {"line1": "1 27818U 03023A   25341.89508089  .00000090  00000+0  81778-4 0  9999", "line2": "2 27818  82.9481 276.2684 0032407 124.7774 296.0498 13.72384910127504"}}, "geometry": {"type": "Point", "coordinates": [-99.02231381048931, -64.26487110907003]}}, {"type": "Feature", "properties": {"norad_id": 28380, "name": "COSMOS 2407", "group": "musson", "lat": 68.84218134036992, "lon": -125.31817455237416, "alt_km": 940.6114535053248, "timestamp": "2025-12-08T10:52:03.217374+00:00", "meta": {"OBJECT_NAME": "COSMOS 2407", "OBJECT_ID": "2004-028A", "EPOCH": "2025-12-07T22:22:07.842144", "MEAN_MOTION": 13.76312885, "ECCENTRICITY": 0.00404618, "INCLINATION": 82.9614, "RA_OF_ASC_NODE": 216.4521, "ARG_OF_PERICENTER": 67.8849, "MEAN_ANOMALY": 303.2551, "EPHEMERIS_TYPE": 0, "CLASSIFICATION_TYPE": "U", "NORAD_CAT_ID": 28380, "ELEMENT_SET_NO": 999, "REV_AT_EPOCH": 7357, "BSTAR": 9.4958738e-05, "MEAN_MOTION_DOT": 1.09e-06, "MEAN_MOTION_DDOT": 0}, "tle": {"line1": "1 28380U 04028A   25341.93203521  .00000109  00000+0  94959-4 0  9994", "line2": "2 28380  82.9614 216.4521 0040461  67.8849 303.2551 13.76312885 73576"}}, "geometry": {"type": "Point", "coordinates": [-125.31817455237416, 68.84218134036992]}}, {"type": "Feature", "properties": {"norad_id": 28521, "name": "COSMOS 2414", "group": "musson", "lat": 24.837092218829113, "lon": 4.617955162279307, "alt_km": 905.5708175732789, "timestamp": "2025-12-08T10:52:03.217385+00:00", "meta": {"OBJECT_NAME": "COSMOS 2414", "OBJECT_ID": "2005-002A", "EPOCH": "2025-12-07T22:00:48.471552", "MEAN_MOTION": 13.87902067, "ECCENTRICITY": 0.00406134, "INCLINATION": 82.9497, "RA_OF_ASC_NODE": 188.3066, "ARG_OF_PERICENTER": 153.2375, "MEAN_ANOMALY": 207.0897, "EPHEMERIS_TYPE": 0, "CLASSIFICATION_TYPE": "U", "NORAD_CAT_ID": 28521, "ELEMENT_SET_NO": 999, "REV_AT_EPOCH": 5728, "BSTAR": 8.2731538e-05, "MEAN_MOTION_DOT": 1.15e-06, "MEAN_MOTION_DDOT": 0}, "tle": {"line1": "1 28521U 05002A   25341.91722768  .00000115  00000+0  82732-4 0  9994", "line2": "2 28521  82.9497 188.3066 0040613 153.2375 207.0897 13.87902067 57289"}}, "geometry": {"type": "Point", "coordinates": [4.617955162279307, 24.837092218829113]}}, {"type": "Feature", "properties": {"norad_id": 32052, "name": "COSMOS 2429", "group": "musson", "lat": 53.49821871617438, "lon": 156.8852758082583, "alt_km": 969.1395736237873, "timestamp": "2025-12-08T10:52:03.217395+00:00", "meta": {"OBJECT_NAME": "COSMOS 2429", "OBJECT_ID": "2007-038A", "EPOCH": "2025-12-07T23:47:02.326560", "MEAN_MOTION": 13.75148646, "ECCENTRICITY": 0.00394578, "INCLINATION": 82.9802, "RA_OF_ASC_NODE": 346.8099, "ARG_OF_PERICENTER": 50.7881, "MEAN_ANOMALY": 309.6768, "EPHEMERIS_TYPE": 0, "CLASSIFICATION_TYPE": "U", "NORAD_CAT_ID": 32052, "ELEMENT_SET_NO": 999, "REV_AT_EPOCH": 91537, "BSTAR": 5.8930416e-05, "MEAN_MOTION_DOT": 7.2e-07, "MEAN_MOTION_DDOT": 0}, "tle": {"line1": "1 32052U 07038A   25341.99099915  .00000072  00000+0  58930-4 0  9993", "line2": "2 32052  82.9802 346.8099 0039457  50.7881 309.6768 13.75148646915378"}}, "geometry": {"type": "Point", "coordinates": [156.8852758082583, 53.49821871617438]}}, {"type": "Feature", "properties": {"norad_id": 35635, "name": "COSMOS 2454", "group": "musson", "lat": 5.789458739302607, "lon": -8.823699007757266, "alt_km": 930.7195994584117, "timestamp": "2025-12-08T10:52:03.217408+00:00", "meta": {"OBJECT_NAME": "COSMOS 2454", "OBJECT_ID": "2009-039A", "EPOCH": "2025-12-07T22:27:54.197280", "MEAN_MOTION": 13.89927698, "ECCENTRICITY": 0.00204858, "INCLINATION": 82.9556, "RA_OF_ASC_NODE": 172.2864, "ARG_OF_PERICENTER": 86.5601, "MEAN_ANOMALY": 22.9478, "EPHEMERIS_TYPE": 0, "CLASSIFICATION_TYPE": "U", "NORAD_CAT_ID": 35635, "ELEMENT_SET_NO": 999, "REV_AT_EPOCH": 83083, "BSTAR": 6.5691095e-05, "MEAN_MOTION_DOT": 9.7e-07, "MEAN_MOTION_DDOT": 0}, "tle": {"line1": "1 35635U 09039A   25341.93604395  .00000097  00000+0  65691-4 0  9993", "line2": "2 35635  82.9556 172.2864 0020485  86.5601  22.9478 13.89927698830830"}}, "geometry": {"type": "Point", "coordinates": [-8.823699007757266, 5.789458739302607]}}, {"type": "Feature", "properties": {"norad_id": 36519, "name": "COSMOS 2463", "group": "musson", "lat": 43.82289061528807, "lon": -156.94632248340878, "alt_km": 1014.7754281981206, "timestamp": "2025-12-08T10:52:03.217430+00:00", "meta": {"OBJECT_NAME": "COSMOS 2463", "OBJECT_ID": "2010-017A", "EPOCH": "2025-12-07T21:02:54.757824", "MEAN_MOTION": 13.71648583, "ECCENTRICITY": 0.00349149, "INCLINATION": 82.9616, "RA_OF_ASC_NODE": 30.2859, "ARG_OF_PERICENTER": 302.0441, "MEAN_ANOMALY": 232.1148, "EPHEMERIS_TYPE": 0, "CLASSIFICATION_TYPE": "U", "NORAD_CAT_ID": 36519, "ELEMENT_SET_NO": 999, "REV_AT_EPOCH": 78170, "BSTAR": 8.8538262e-05, "MEAN_MOTION_DOT": 9.5e-07, "MEAN_MOTION_DDOT": 0}, "tle": {"line1": "1 36519U 10017A   25341.87702266  .00000095  00000+0  88538-4 0  9995", "line2": "2 36519  82.9616  30.2859 0034914 302.0441 232.1148 13.71648583781700"}}, "geometry": {"type": "Point", "coordinates": [-156.94632248340878, 43.82289061528807]}}]}